{
  "type": "FeatureCollection",
  "name": "quarteirão novo",
  "features": [
    {
      "type": "Feature",
      "properties": {
        "descrição": null,
        "id": "216",
        "Area": "16815.625",
        "Perimetro": "527.367"
      },
      "geometry": {
        "type": "Polygon",
        "coordinates": [
          [
            [-50.516068, -21.920894, 0],
            [-50.514882, -21.92007, 0],
            [-50.515669, -21.919305, 0],
            [-50.516781, -21.920273, 0],
            [-50.516068, -21.920894, 0]
          ]
        ]
      }
    },
    {
      "type": "Feature",
      "properties": {
        "descrição": null,
        "id": "151",
        "Area": "5427.42",
        "Perimetro": "310.625"
      },
      "geometry": {
        "type": "Polygon",
        "coordinates": [
          [
            [-50.531959, -21.930829, 0],
            [-50.532379, -21.931134, 0],
            [-50.531671, -21.931781, 0],
            [-50.531299, -21.931424, 0],
            [-50.531282, -21.931432, 0],
            [-50.531959, -21.930829, 0]
          ]
        ]
      }
    },
    {
      "type": "Feature",
      "properties": {
        "descrição": null,
        "id": "153",
        "Area": "4804.188",
        "Perimetro": "285.695"
      },
      "geometry": {
        "type": "Polygon",
        "coordinates": [
          [
            [-50.531933, -21.930829, 0],
            [-50.531293, -21.931389, 0],
            [-50.53094, -21.931073, 0],
            [-50.531512, -21.93049, 0],
            [-50.531933, -21.930829, 0]
          ]
        ]
      }
    },
    {
      "type": "Feature",
      "properties": {
        "descrição": null,
        "id": "1546",
        "Area": "7805.236",
        "Perimetro": "351.383"
      },
      "geometry": {
        "type": "Polygon",
        "coordinates": [
          [
            [-50.530155, -21.930509, 0],
            [-50.530776, -21.931089, 0],
            [-50.530369, -21.931456, 0],
            [-50.529978, -21.931573, 0],
            [-50.529653, -21.93067, 0],
            [-50.530155, -21.930509, 0]
          ]
        ]
      }
    },
    {
      "type": "Feature",
      "properties": {
        "descrição": null,
        "id": "1488",
        "Area": "12968.396",
        "Perimetro": "522.259"
      },
      "geometry": {
        "type": "Polygon",
        "coordinates": [
          [
            [-50.521909, -21.912555, 0],
            [-50.521834, -21.913887, 0],
            [-50.521064, -21.914425, 0],
            [-50.521207, -21.912592, 0],
            [-50.521909, -21.912555, 0]
          ]
        ]
      }
    },
    {
      "type": "Feature",
      "properties": {
        "descrição": null,
        "id": "1489",
        "Area": "11605.094",
        "Perimetro": "470.023"
      },
      "geometry": {
        "type": "Polygon",
        "coordinates": [
          [
            [-50.521937, -21.912519, 0],
            [-50.52122, -21.912545, 0],
            [-50.521282, -21.91135, 0],
            [-50.52207, -21.910967, 0],
            [-50.521937, -21.912519, 0]
          ]
        ]
      }
    },
    {
      "type": "Feature",
      "properties": {
        "descrição": null,
        "id": "1493",
        "Area": "13826.265",
        "Perimetro": "750.143"
      },
      "geometry": {
        "type": "Polygon",
        "coordinates": [
          [
            [-50.522091, -21.911421, 0],
            [-50.522146, -21.910914, 0],
            [-50.524642, -21.90939, 0],
            [-50.524877, -21.909687, 0],
            [-50.522091, -21.911421, 0]
          ]
        ]
      }
    },
    {
      "type": "Feature",
      "properties": {
        "descrição": null,
        "id": "1492",
        "Area": "10585.278",
        "Perimetro": "454.486"
      },
      "geometry": {
        "type": "Polygon",
        "coordinates": [
          [
            [-50.522979, -21.910861, 0],
            [-50.523392, -21.911418, 0],
            [-50.522007, -21.912297, 0],
            [-50.5221, -21.911422, 0],
            [-50.522979, -21.910861, 0]
          ]
        ]
      }
    },
    {
      "type": "Feature",
      "properties": {
        "descrição": null,
        "id": "1500",
        "Area": "10226.78",
        "Perimetro": "550.875"
      },
      "geometry": {
        "type": "Polygon",
        "coordinates": [
          [
            [-50.524921, -21.909679, 0],
            [-50.524684, -21.909345, 0],
            [-50.526533, -21.908212, 0],
            [-50.526816, -21.908514, 0],
            [-50.524921, -21.909679, 0]
          ]
        ]
      }
    },
    {
      "type": "Feature",
      "properties": {
        "descrição": null,
        "id": "1491",
        "Area": "13867.825",
        "Perimetro": "554.294"
      },
      "geometry": {
        "type": "Polygon",
        "coordinates": [
          [
            [-50.523413, -21.911511, 0],
            [-50.523779, -21.912037, 0],
            [-50.521942, -21.913139, 0],
            [-50.522, -21.912358, 0],
            [-50.523413, -21.911511, 0]
          ]
        ]
      }
    },
    {
      "type": "Feature",
      "properties": {
        "descrição": null,
        "id": "1490",
        "Area": "29881.337",
        "Perimetro": "795.93"
      },
      "geometry": {
        "type": "Polygon",
        "coordinates": [
          [
            [-50.524248, -21.912628, 0],
            [-50.523115, -21.913493, 0],
            [-50.523323, -21.913796, 0],
            [-50.522332, -21.914564, 0],
            [-50.521901, -21.914044, 0],
            [-50.521947, -21.913199, 0],
            [-50.523804, -21.912064, 0],
            [-50.524248, -21.912628, 0]
          ]
        ]
      }
    },
    {
      "type": "Feature",
      "properties": {
        "descrição": null,
        "id": "1496",
        "Area": "11702.833",
        "Perimetro": "616.797"
      },
      "geometry": {
        "type": "Polygon",
        "coordinates": [
          [
            [-50.524465, -21.912167, 0],
            [-50.524637, -21.912409, 0],
            [-50.524285, -21.912638, 0],
            [-50.523808, -21.912027, 0],
            [-50.52571, -21.910856, 0],
            [-50.525894, -21.911104, 0],
            [-50.524465, -21.912167, 0]
          ]
        ]
      }
    },
    {
      "type": "Feature",
      "properties": {
        "descrição": null,
        "id": "1495",
        "Area": "16505.059",
        "Perimetro": "605.056"
      },
      "geometry": {
        "type": "Polygon",
        "coordinates": [
          [
            [-50.523799, -21.912012, 0],
            [-50.52344, -21.911454, 0],
            [-50.525303, -21.91029, 0],
            [-50.525656, -21.910836, 0],
            [-50.523799, -21.912012, 0]
          ]
        ]
      }
    },
    {
      "type": "Feature",
      "properties": {
        "descrição": null,
        "id": "1494",
        "Area": "15335.905",
        "Perimetro": "589.456"
      },
      "geometry": {
        "type": "Polygon",
        "coordinates": [
          [
            [-50.523414, -21.911392, 0],
            [-50.52309, -21.910889, 0],
            [-50.524911, -21.909737, 0],
            [-50.52527, -21.910269, 0],
            [-50.523414, -21.911392, 0]
          ]
        ]
      }
    },
    {
      "type": "Feature",
      "properties": {
        "descrição": null,
        "id": "1499",
        "Area": "15813.611",
        "Perimetro": "591.188"
      },
      "geometry": {
        "type": "Polygon",
        "coordinates": [
          [
            [-50.526822, -21.908573, 0],
            [-50.527142, -21.909099, 0],
            [-50.525358, -21.910235, 0],
            [-50.524958, -21.909692, 0],
            [-50.526822, -21.908573, 0]
          ]
        ]
      }
    },
    {
      "type": "Feature",
      "properties": {
        "descrição": null,
        "id": "1498",
        "Area": "15734.768",
        "Perimetro": "589.542"
      },
      "geometry": {
        "type": "Polygon",
        "coordinates": [
          [
            [-50.527214, -21.909189, 0],
            [-50.527581, -21.909681, 0],
            [-50.525759, -21.910833, 0],
            [-50.525386, -21.91027, 0],
            [-50.527214, -21.909189, 0]
          ]
        ]
      }
    },
    {
      "type": "Feature",
      "properties": {
        "descrição": null,
        "id": "1497",
        "Area": "17454.405",
        "Perimetro": "1139.137"
      },
      "geometry": {
        "type": "Polygon",
        "coordinates": [
          [
            [-50.529699, -21.910455, 0],
            [-50.529687, -21.910441, 0],
            [-50.528629, -21.909378, 0],
            [-50.525971, -21.911082, 0],
            [-50.525767, -21.910876, 0],
            [-50.528978, -21.908949, 0],
            [-50.530017, -21.910261, 0],
            [-50.529699, -21.910455, 0]
          ]
        ]
      }
    },
    {
      "type": "Feature",
      "properties": {
        "descrição": null,
        "id": "1501",
        "Area": "9793.111",
        "Perimetro": "574.449"
      },
      "geometry": {
        "type": "Polygon",
        "coordinates": [
          [
            [-50.528617, -21.907012, 0],
            [-50.528801, -21.907286, 0],
            [-50.526824, -21.90852, 0],
            [-50.526562, -21.908214, 0],
            [-50.528617, -21.907012, 0]
          ]
        ]
      }
    },
    {
      "type": "Feature",
      "properties": {
        "descrição": null,
        "id": "1502",
        "Area": "16684.261",
        "Perimetro": "618.976"
      },
      "geometry": {
        "type": "Polygon",
        "coordinates": [
          [
            [-50.528801, -21.907353, 0],
            [-50.529182, -21.907875, 0],
            [-50.527227, -21.909073, 0],
            [-50.526867, -21.908551, 0],
            [-50.528801, -21.907353, 0]
          ]
        ]
      }
    },
    {
      "type": "Feature",
      "properties": {
        "descrição": null,
        "id": "1503",
        "Area": "15521.538",
        "Perimetro": "596.333"
      },
      "geometry": {
        "type": "Polygon",
        "coordinates": [
          [
            [-50.529171, -21.907982, 0],
            [-50.529541, -21.908506, 0],
            [-50.527638, -21.909613, 0],
            [-50.527294, -21.909127, 0],
            [-50.529171, -21.907982, 0]
          ]
        ]
      }
    },
    {
      "type": "Feature",
      "properties": {
        "descrição": null,
        "id": "1504",
        "Area": "12010.525",
        "Perimetro": "491.072"
      },
      "geometry": {
        "type": "Polygon",
        "coordinates": [
          [
            [-50.530618, -21.909871, 0],
            [-50.530091, -21.910232, 0],
            [-50.52905, -21.908921, 0],
            [-50.529593, -21.908591, 0],
            [-50.530618, -21.909871, 0]
          ]
        ]
      }
    },
    {
      "type": "Feature",
      "properties": {
        "descrição": null,
        "id": "1505",
        "Area": "18910.237",
        "Perimetro": "656.783"
      },
      "geometry": {
        "type": "Polygon",
        "coordinates": [
          [
            [-50.531244, -21.909444, 0],
            [-50.530635, -21.909826, 0],
            [-50.52928, -21.907906, 0],
            [-50.529861, -21.907538, 0],
            [-50.531244, -21.909444, 0]
          ]
        ]
      }
    },
    {
      "type": "Feature",
      "properties": {
        "descrição": null,
        "id": "1506",
        "Area": "15796.852",
        "Perimetro": "601.602"
      },
      "geometry": {
        "type": "Polygon",
        "coordinates": [
          [
            [-50.531114, -21.906669, 0],
            [-50.529233, -21.90784, 0],
            [-50.528893, -21.907318, 0],
            [-50.530774, -21.906146, 0],
            [-50.531114, -21.906669, 0]
          ]
        ]
      }
    },
    {
      "type": "Feature",
      "properties": {
        "descrição": null,
        "id": "1507",
        "Area": "6631.268",
        "Perimetro": "514.724"
      },
      "geometry": {
        "type": "Polygon",
        "coordinates": [
          [
            [-50.530537, -21.905875, 0],
            [-50.530674, -21.906065, 0],
            [-50.528832, -21.907226, 0],
            [-50.52867, -21.906972, 0],
            [-50.530537, -21.905875, 0]
          ]
        ]
      }
    },
    {
      "type": "Feature",
      "properties": {
        "descrição": null,
        "id": "1508",
        "Area": "5627.609",
        "Perimetro": "439.487"
      },
      "geometry": {
        "type": "Polygon",
        "coordinates": [
          [
            [-50.532162, -21.904887, 0],
            [-50.532301, -21.905119, 0],
            [-50.53077, -21.906044, 0],
            [-50.530596, -21.90583, 0],
            [-50.532162, -21.904887, 0]
          ]
        ]
      }
    },
    {
      "type": "Feature",
      "properties": {
        "descrição": null,
        "id": "1509",
        "Area": "12885.965",
        "Perimetro": "512.057"
      },
      "geometry": {
        "type": "Polygon",
        "coordinates": [
          [
            [-50.532342, -21.90517, 0],
            [-50.53269, -21.905684, 0],
            [-50.531176, -21.906633, 0],
            [-50.530823, -21.906094, 0],
            [-50.532342, -21.90517, 0]
          ]
        ]
      }
    },
    {
      "type": "Feature",
      "properties": {
        "descrição": null,
        "id": "1510",
        "Area": "15771.352",
        "Perimetro": "591.413"
      },
      "geometry": {
        "type": "Polygon",
        "coordinates": [
          [
            [-50.534232, -21.904034, 0],
            [-50.534605, -21.904554, 0],
            [-50.53276, -21.905662, 0],
            [-50.532384, -21.905137, 0],
            [-50.534232, -21.904034, 0]
          ]
        ]
      }
    },
    {
      "type": "Feature",
      "properties": {
        "descrição": null,
        "id": "1511",
        "Area": "6683.647",
        "Perimetro": "512.493"
      },
      "geometry": {
        "type": "Polygon",
        "coordinates": [
          [
            [-50.53407, -21.903768, 0],
            [-50.534218, -21.903998, 0],
            [-50.532361, -21.905092, 0],
            [-50.532209, -21.90487, 0],
            [-50.53407, -21.903768, 0]
          ]
        ]
      }
    },
    {
      "type": "Feature",
      "properties": {
        "descrição": null,
        "id": "1512",
        "Area": "7455.879",
        "Perimetro": "517.69"
      },
      "geometry": {
        "type": "Polygon",
        "coordinates": [
          [
            [-50.535953, -21.902624, 0],
            [-50.536114, -21.902885, 0],
            [-50.534263, -21.903994, 0],
            [-50.534123, -21.903728, 0],
            [-50.535953, -21.902624, 0]
          ]
        ]
      }
    },
    {
      "type": "Feature",
      "properties": {
        "descrição": null,
        "id": "1518",
        "Area": "7966.248",
        "Perimetro": "522.164"
      },
      "geometry": {
        "type": "Polygon",
        "coordinates": [
          [
            [-50.537847, -21.901502, 0],
            [-50.538045, -21.901767, 0],
            [-50.536176, -21.902859, 0],
            [-50.536009, -21.902588, 0],
            [-50.537847, -21.901502, 0]
          ]
        ]
      }
    },
    {
      "type": "Feature",
      "properties": {
        "descrição": null,
        "id": "1521",
        "Area": "7922.568",
        "Perimetro": "519.775"
      },
      "geometry": {
        "type": "Polygon",
        "coordinates": [
          [
            [-50.539768, -21.90037, 0],
            [-50.539895, -21.90068, 0],
            [-50.538098, -21.901751, 0],
            [-50.537907, -21.901494, 0],
            [-50.539768, -21.90037, 0]
          ]
        ]
      }
    },
    {
      "type": "Feature",
      "properties": {
        "descrição": null,
        "id": "1513",
        "Area": "16492.194",
        "Perimetro": "628.4"
      },
      "geometry": {
        "type": "Polygon",
        "coordinates": [
          [
            [-50.534872, -21.903702, 0],
            [-50.536104, -21.905611, 0],
            [-50.535614, -21.905946, 0],
            [-50.534304, -21.904051, 0],
            [-50.534872, -21.903702, 0]
          ]
        ]
      }
    },
    {
      "type": "Feature",
      "properties": {
        "descrição": null,
        "id": "1514",
        "Area": "16904.648",
        "Perimetro": "612.641"
      },
      "geometry": {
        "type": "Polygon",
        "coordinates": [
          [
            [-50.535512, -21.903356, 0],
            [-50.536734, -21.905104, 0],
            [-50.536163, -21.905528, 0],
            [-50.534952, -21.903699, 0],
            [-50.535512, -21.903356, 0]
          ]
        ]
      }
    },
    {
      "type": "Feature",
      "properties": {
        "descrição": null,
        "id": "1515",
        "Area": "15384.165",
        "Perimetro": "582.78"
      },
      "geometry": {
        "type": "Polygon",
        "coordinates": [
          [
            [-50.536159, -21.902954, 0],
            [-50.537248, -21.904632, 0],
            [-50.536771, -21.905037, 0],
            [-50.535571, -21.90332, 0],
            [-50.536159, -21.902954, 0]
          ]
        ]
      }
    },
    {
      "type": "Feature",
      "properties": {
        "descrição": null,
        "id": "1516",
        "Area": "13872.248",
        "Perimetro": "553.932"
      },
      "geometry": {
        "type": "Polygon",
        "coordinates": [
          [
            [-50.536734, -21.902616, 0],
            [-50.537829, -21.904185, 0],
            [-50.537325, -21.904595, 0],
            [-50.536231, -21.902938, 0],
            [-50.536734, -21.902616, 0]
          ]
        ]
      }
    },
    {
      "type": "Feature",
      "properties": {
        "descrição": null,
        "id": "1517",
        "Area": "15231.585",
        "Perimetro": "557.002"
      },
      "geometry": {
        "type": "Polygon",
        "coordinates": [
          [
            [-50.537407, -21.902224, 0],
            [-50.538469, -21.903741, 0],
            [-50.537911, -21.904165, 0],
            [-50.536801, -21.902599, 0],
            [-50.537407, -21.902224, 0]
          ]
        ]
      }
    },
    {
      "type": "Feature",
      "properties": {
        "descrição": null,
        "id": "1519",
        "Area": "13510.334",
        "Perimetro": "530.224"
      },
      "geometry": {
        "type": "Polygon",
        "coordinates": [
          [
            [-50.538058, -21.901846, 0],
            [-50.539014, -21.903308, 0],
            [-50.538527, -21.90374, 0],
            [-50.537491, -21.902192, 0],
            [-50.538058, -21.901846, 0]
          ]
        ]
      }
    },
    {
      "type": "Feature",
      "properties": {
        "descrição": null,
        "id": "1520",
        "Area": "11938.409",
        "Perimetro": "500.621"
      },
      "geometry": {
        "type": "Polygon",
        "coordinates": [
          [
            [-50.538642, -21.901513, 0],
            [-50.539591, -21.902899, 0],
            [-50.539091, -21.903272, 0],
            [-50.538125, -21.901802, 0],
            [-50.538642, -21.901513, 0]
          ]
        ]
      }
    },
    {
      "type": "Feature",
      "properties": {
        "descrição": null,
        "id": "1522",
        "Area": "12418.813",
        "Perimetro": "495.172"
      },
      "geometry": {
        "type": "Polygon",
        "coordinates": [
          [
            [-50.539299, -21.901135, 0],
            [-50.540203, -21.902457, 0],
            [-50.539664, -21.902868, 0],
            [-50.538741, -21.901464, 0],
            [-50.539299, -21.901135, 0]
          ]
        ]
      }
    },
    {
      "type": "Feature",
      "properties": {
        "descrição": null,
        "id": "1523",
        "Area": "11868.832",
        "Perimetro": "481.298"
      },
      "geometry": {
        "type": "Polygon",
        "coordinates": [
          [
            [-50.540794, -21.902022, 0],
            [-50.540258, -21.902424, 0],
            [-50.539357, -21.901085, 0],
            [-50.539902, -21.900747, 0],
            [-50.540794, -21.902022, 0]
          ]
        ]
      }
    },
    {
      "type": "Feature",
      "properties": {
        "descrição": null,
        "id": "1524",
        "Area": "5638.865",
        "Perimetro": "505.424"
      },
      "geometry": {
        "type": "Polygon",
        "coordinates": [
          [
            [-50.535772, -21.90622, 0],
            [-50.535629, -21.906024, 0],
            [-50.537365, -21.904744, 0],
            [-50.537486, -21.904921, 0],
            [-50.535772, -21.90622, 0]
          ]
        ]
      }
    },
    {
      "type": "Feature",
      "properties": {
        "descrição": null,
        "id": "1525",
        "Area": "6385.79",
        "Perimetro": "508.494"
      },
      "geometry": {
        "type": "Polygon",
        "coordinates": [
          [
            [-50.537553, -21.904874, 0],
            [-50.5374, -21.904683, 0],
            [-50.539084, -21.903362, 0],
            [-50.539246, -21.903589, 0],
            [-50.537553, -21.904874, 0]
          ]
        ]
      }
    },
    {
      "type": "Feature",
      "properties": {
        "descrição": null,
        "id": "202",
        "Area": "59304.1",
        "Perimetro": "1042.991"
      },
      "geometry": {
        "type": "Polygon",
        "coordinates": [
          [
            [-50.518063, -21.919019, 0],
            [-50.519869, -21.916823, 0],
            [-50.520585, -21.916816, 0],
            [-50.52028, -21.919926, 0],
            [-50.519802, -21.920468, 0],
            [-50.518063, -21.919019, 0]
          ]
        ]
      }
    },
    {
      "type": "Feature",
      "properties": {
        "descrição": null,
        "id": "222",
        "Area": "2981.937",
        "Perimetro": "231.181"
      },
      "geometry": {
        "type": "Polygon",
        "coordinates": [
          [
            [-50.516015, -21.917333, 0],
            [-50.515491, -21.916842, 0],
            [-50.515733, -21.91658, 0],
            [-50.516268, -21.917069, 0],
            [-50.516015, -21.917333, 0]
          ]
        ]
      }
    },
    {
      "type": "Feature",
      "properties": {
        "descrição": null,
        "id": "1393",
        "Area": "9928.436",
        "Perimetro": "538.222"
      },
      "geometry": {
        "type": "Polygon",
        "coordinates": [
          [
            [-50.485834, -21.937036, 0],
            [-50.486423, -21.937457, 0],
            [-50.484698, -21.937653, 0],
            [-50.483983, -21.93733, 0],
            [-50.483959, -21.937286, 0],
            [-50.485834, -21.937036, 0]
          ]
        ]
      }
    },
    {
      "type": "Feature",
      "properties": {
        "descrição": null,
        "id": "1409",
        "Area": "3089.788",
        "Perimetro": "268.083"
      },
      "geometry": {
        "type": "Polygon",
        "coordinates": [
          [
            [-50.485151, -21.936548, 0],
            [-50.485732, -21.936956, 0],
            [-50.484674, -21.937143, 0],
            [-50.485151, -21.936548, 0]
          ]
        ]
      }
    },
    {
      "type": "Feature",
      "properties": {
        "descrição": null,
        "id": "1410",
        "Area": "4345.774",
        "Perimetro": "304.963"
      },
      "geometry": {
        "type": "Polygon",
        "coordinates": [
          [
            [-50.484529, -21.93713, 0],
            [-50.484526, -21.937112, 0],
            [-50.484015, -21.937149, 0],
            [-50.484693, -21.936251, 0],
            [-50.485013, -21.936493, 0],
            [-50.484529, -21.93713, 0]
          ]
        ]
      }
    },
    {
      "type": "Feature",
      "properties": {
        "descrição": null,
        "id": "1411",
        "Area": "6887.63",
        "Perimetro": "375.225"
      },
      "geometry": {
        "type": "Polygon",
        "coordinates": [
          [
            [-50.483856, -21.937205, 0],
            [-50.483855, -21.937196, 0],
            [-50.483423, -21.936968, 0],
            [-50.484209, -21.935933, 0],
            [-50.484586, -21.936201, 0],
            [-50.483856, -21.937205, 0]
          ]
        ]
      }
    },
    {
      "type": "Feature",
      "properties": {
        "descrição": null,
        "id": "1468",
        "Area": "12764.525",
        "Perimetro": "618.458"
      },
      "geometry": {
        "type": "Polygon",
        "coordinates": [
          [
            [-50.48179, -21.938017, 0],
            [-50.481318, -21.937627, 0],
            [-50.483476, -21.937328, 0],
            [-50.4839, -21.937443, 0],
            [-50.484123, -21.937744, 0],
            [-50.48179, -21.938017, 0]
          ]
        ]
      }
    },
    {
      "type": "Feature",
      "properties": {
        "descrição": null,
        "id": "1475",
        "Area": "13840.447",
        "Perimetro": "784.524"
      },
      "geometry": {
        "type": "Polygon",
        "coordinates": [
          [
            [-50.481244, -21.937587, 0],
            [-50.47874, -21.935733, 0],
            [-50.478937, -21.935456, 0],
            [-50.481745, -21.93746, 0],
            [-50.481244, -21.937587, 0]
          ]
        ]
      }
    },
    {
      "type": "Feature",
      "properties": {
        "descrição": null,
        "id": "1471",
        "Area": "7960.195",
        "Perimetro": "443.229"
      },
      "geometry": {
        "type": "Polygon",
        "coordinates": [
          [
            [-50.482574, -21.937384, 0],
            [-50.481838, -21.937463, 0],
            [-50.480842, -21.936697, 0],
            [-50.481106, -21.93637, 0],
            [-50.482574, -21.937384, 0]
          ]
        ]
      }
    },
    {
      "type": "Feature",
      "properties": {
        "descrição": null,
        "id": "1470",
        "Area": "12576.179",
        "Perimetro": "566.041"
      },
      "geometry": {
        "type": "Polygon",
        "coordinates": [
          [
            [-50.483116, -21.9373, 0],
            [-50.482712, -21.937361, 0],
            [-50.481136, -21.936282, 0],
            [-50.481479, -21.935896, 0],
            [-50.483351, -21.937162, 0],
            [-50.483116, -21.9373, 0]
          ]
        ]
      }
    },
    {
      "type": "Feature",
      "properties": {
        "descrição": null,
        "id": "1469",
        "Area": "11859.315",
        "Perimetro": "555.179"
      },
      "geometry": {
        "type": "Polygon",
        "coordinates": [
          [
            [-50.483646, -21.936535, 0],
            [-50.483367, -21.936916, 0],
            [-50.481605, -21.935705, 0],
            [-50.481911, -21.935308, 0],
            [-50.483646, -21.936535, 0]
          ]
        ]
      }
    },
    {
      "type": "Feature",
      "properties": {
        "descrição": null,
        "id": "1413",
        "Area": "11601.44",
        "Perimetro": "549.799"
      },
      "geometry": {
        "type": "Polygon",
        "coordinates": [
          [
            [-50.483984, -21.936111, 0],
            [-50.483695, -21.936494, 0],
            [-50.481948, -21.935278, 0],
            [-50.482264, -21.934912, 0],
            [-50.483984, -21.936111, 0]
          ]
        ]
      }
    },
    {
      "type": "Feature",
      "properties": {
        "descrição": null,
        "id": "1412",
        "Area": "5644.71",
        "Perimetro": "493.743"
      },
      "geometry": {
        "type": "Polygon",
        "coordinates": [
          [
            [-50.484155, -21.935859, 0],
            [-50.484015, -21.936063, 0],
            [-50.482304, -21.934858, 0],
            [-50.482428, -21.934696, 0],
            [-50.48243, -21.934671, 0],
            [-50.484155, -21.935859, 0]
          ]
        ]
      }
    },
    {
      "type": "Feature",
      "properties": {
        "descrição": null,
        "id": "1414",
        "Area": "6520.407",
        "Perimetro": "518.97"
      },
      "geometry": {
        "type": "Polygon",
        "coordinates": [
          [
            [-50.482375, -21.93463, 0],
            [-50.482227, -21.934859, 0],
            [-50.480439, -21.933571, 0],
            [-50.480597, -21.933378, 0],
            [-50.482375, -21.93463, 0]
          ]
        ]
      }
    },
    {
      "type": "Feature",
      "properties": {
        "descrição": null,
        "id": "1415",
        "Area": "11899.723",
        "Perimetro": "565.362"
      },
      "geometry": {
        "type": "Polygon",
        "coordinates": [
          [
            [-50.481906, -21.935259, 0],
            [-50.480105, -21.934016, 0],
            [-50.480402, -21.933616, 0],
            [-50.482181, -21.934899, 0],
            [-50.481906, -21.935259, 0]
          ]
        ]
      }
    },
    {
      "type": "Feature",
      "properties": {
        "descrição": null,
        "id": "1472",
        "Area": "12382.709",
        "Perimetro": "568.072"
      },
      "geometry": {
        "type": "Polygon",
        "coordinates": [
          [
            [-50.481855, -21.935293, 0],
            [-50.48155, -21.935686, 0],
            [-50.479763, -21.934431, 0],
            [-50.480069, -21.934041, 0],
            [-50.481855, -21.935293, 0]
          ]
        ]
      }
    },
    {
      "type": "Feature",
      "properties": {
        "descrição": null,
        "id": "1473",
        "Area": "12683.889",
        "Perimetro": "571.244"
      },
      "geometry": {
        "type": "Polygon",
        "coordinates": [
          [
            [-50.481064, -21.936248, 0],
            [-50.47931, -21.93501, 0],
            [-50.479604, -21.934586, 0],
            [-50.481408, -21.935879, 0],
            [-50.481064, -21.936248, 0]
          ]
        ]
      }
    },
    {
      "type": "Feature",
      "properties": {
        "descrição": null,
        "id": "1474",
        "Area": "11272.634",
        "Perimetro": "561.38"
      },
      "geometry": {
        "type": "Polygon",
        "coordinates": [
          [
            [-50.481063, -21.936306, 0],
            [-50.480774, -21.936669, 0],
            [-50.478999, -21.935409, 0],
            [-50.479235, -21.935045, 0],
            [-50.481063, -21.936306, 0]
          ]
        ]
      }
    },
    {
      "type": "Feature",
      "properties": {
        "descrição": null,
        "id": "1479",
        "Area": "7385.552",
        "Perimetro": "536.46"
      },
      "geometry": {
        "type": "Polygon",
        "coordinates": [
          [
            [-50.476894, -21.934353, 0],
            [-50.477067, -21.934165, 0],
            [-50.478885, -21.935452, 0],
            [-50.478696, -21.935712, 0],
            [-50.476894, -21.934353, 0]
          ]
        ]
      }
    },
    {
      "type": "Feature",
      "properties": {
        "descrição": null,
        "id": "1478",
        "Area": "11715.963",
        "Perimetro": "562.356"
      },
      "geometry": {
        "type": "Polygon",
        "coordinates": [
          [
            [-50.479179, -21.93499, 0],
            [-50.478932, -21.935356, 0],
            [-50.477114, -21.934129, 0],
            [-50.47741, -21.933729, 0],
            [-50.479179, -21.93499, 0]
          ]
        ]
      }
    },
    {
      "type": "Feature",
      "properties": {
        "descrição": null,
        "id": "1477",
        "Area": "12854.919",
        "Perimetro": "571.002"
      },
      "geometry": {
        "type": "Polygon",
        "coordinates": [
          [
            [-50.479543, -21.93456, 0],
            [-50.479227, -21.934956, 0],
            [-50.477412, -21.933746, 0],
            [-50.477745, -21.933335, 0],
            [-50.479543, -21.93456, 0]
          ]
        ]
      }
    },
    {
      "type": "Feature",
      "properties": {
        "descrição": null,
        "id": "1476",
        "Area": "14233.115",
        "Perimetro": "589.73"
      },
      "geometry": {
        "type": "Polygon",
        "coordinates": [
          [
            [-50.47967, -21.934437, 0],
            [-50.477851, -21.933187, 0],
            [-50.478191, -21.932713, 0],
            [-50.480003, -21.934013, 0],
            [-50.47967, -21.934437, 0]
          ]
        ]
      }
    },
    {
      "type": "Feature",
      "properties": {
        "descrição": null,
        "id": "1417",
        "Area": "11069.26",
        "Perimetro": "561.658"
      },
      "geometry": {
        "type": "Polygon",
        "coordinates": [
          [
            [-50.480316, -21.933605, 0],
            [-50.480057, -21.933958, 0],
            [-50.478253, -21.932678, 0],
            [-50.478514, -21.932326, 0],
            [-50.480316, -21.933605, 0]
          ]
        ]
      }
    },
    {
      "type": "Feature",
      "properties": {
        "descrição": null,
        "id": "1416",
        "Area": "6060.775",
        "Perimetro": "523.1"
      },
      "geometry": {
        "type": "Polygon",
        "coordinates": [
          [
            [-50.480523, -21.933361, 0],
            [-50.480363, -21.933549, 0],
            [-50.47854, -21.932246, 0],
            [-50.478703, -21.932081, 0],
            [-50.480523, -21.933361, 0]
          ]
        ]
      }
    },
    {
      "type": "Feature",
      "properties": {
        "descrição": null,
        "id": "1418",
        "Area": "5719.179",
        "Perimetro": "514.528"
      },
      "geometry": {
        "type": "Polygon",
        "coordinates": [
          [
            [-50.47862, -21.932071, 0],
            [-50.478486, -21.932251, 0],
            [-50.47669, -21.930994, 0],
            [-50.476809, -21.930797, 0],
            [-50.47862, -21.932071, 0]
          ]
        ]
      }
    },
    {
      "type": "Feature",
      "properties": {
        "descrição": null,
        "id": "1420",
        "Area": "5831.92",
        "Perimetro": "522.171"
      },
      "geometry": {
        "type": "Polygon",
        "coordinates": [
          [
            [-50.476758, -21.930779, 0],
            [-50.476637, -21.930954, 0],
            [-50.474774, -21.929698, 0],
            [-50.474922, -21.929505, 0],
            [-50.476758, -21.930779, 0]
          ]
        ]
      }
    },
    {
      "type": "Feature",
      "properties": {
        "descrição": null,
        "id": "1422",
        "Area": "6650.087",
        "Perimetro": "601.252"
      },
      "geometry": {
        "type": "Polygon",
        "coordinates": [
          [
            [-50.472756, -21.928019, 0],
            [-50.474887, -21.929483, 0],
            [-50.474728, -21.929676, 0],
            [-50.472622, -21.92817, 0],
            [-50.472756, -21.928019, 0]
          ]
        ]
      }
    },
    {
      "type": "Feature",
      "properties": {
        "descrição": null,
        "id": "1419",
        "Area": "11012.766",
        "Perimetro": "557.701"
      },
      "geometry": {
        "type": "Polygon",
        "coordinates": [
          [
            [-50.478154, -21.932653, 0],
            [-50.476369, -21.931382, 0],
            [-50.476638, -21.931041, 0],
            [-50.478428, -21.932303, 0],
            [-50.478154, -21.932653, 0]
          ]
        ]
      }
    },
    {
      "type": "Feature",
      "properties": {
        "descrição": null,
        "id": "1480",
        "Area": "12716.864",
        "Perimetro": "582.14"
      },
      "geometry": {
        "type": "MultiPolygon",
        "coordinates": [
          [
            [
              [-50.4781045, -21.9327203, 0],
              [-50.478112, -21.93271, 0],
              [-50.478124, -21.932715, 0],
              [-50.4781045, -21.9327203, 0]
            ]
          ],
          [
            [
              [-50.4781045, -21.9327203, 0],
              [-50.477813, -21.93312, 0],
              [-50.475985, -21.931865, 0],
              [-50.47631, -21.93145, 0],
              [-50.478087, -21.932725, 0],
              [-50.4781045, -21.9327203, 0]
            ]
          ]
        ]
      }
    },
    {
      "type": "Feature",
      "properties": {
        "descrição": null,
        "id": "1481",
        "Area": "12047.045",
        "Perimetro": "567.458"
      },
      "geometry": {
        "type": "Polygon",
        "coordinates": [
          [
            [-50.477368, -21.933664, 0],
            [-50.475564, -21.932419, 0],
            [-50.475858, -21.932034, 0],
            [-50.477666, -21.933292, 0],
            [-50.477368, -21.933664, 0]
          ]
        ]
      }
    },
    {
      "type": "Feature",
      "properties": {
        "descrição": null,
        "id": "1482",
        "Area": "11293.99",
        "Perimetro": "560.506"
      },
      "geometry": {
        "type": "Polygon",
        "coordinates": [
          [
            [-50.477298, -21.933736, 0],
            [-50.477035, -21.934084, 0],
            [-50.475241, -21.932811, 0],
            [-50.475535, -21.932449, 0],
            [-50.477298, -21.933736, 0]
          ]
        ]
      }
    },
    {
      "type": "Feature",
      "properties": {
        "descrição": null,
        "id": "1421",
        "Area": "12194.422",
        "Perimetro": "571.876"
      },
      "geometry": {
        "type": "Polygon",
        "coordinates": [
          [
            [-50.476285, -21.931375, 0],
            [-50.474457, -21.930103, 0],
            [-50.474757, -21.929741, 0],
            [-50.476583, -21.930981, 0],
            [-50.476285, -21.931375, 0]
          ]
        ]
      }
    },
    {
      "type": "Feature",
      "properties": {
        "descrição": null,
        "id": "1483",
        "Area": "12708.199",
        "Perimetro": "576.748"
      },
      "geometry": {
        "type": "Polygon",
        "coordinates": [
          [
            [-50.475938, -21.93183, 0],
            [-50.474127, -21.930555, 0],
            [-50.474434, -21.93014, 0],
            [-50.476231, -21.931442, 0],
            [-50.475938, -21.93183, 0]
          ]
        ]
      }
    },
    {
      "type": "Feature",
      "properties": {
        "descrição": null,
        "id": "1484",
        "Area": "13632.562",
        "Perimetro": "587.776"
      },
      "geometry": {
        "type": "Polygon",
        "coordinates": [
          [
            [-50.475822, -21.932003, 0],
            [-50.475504, -21.932379, 0],
            [-50.473671, -21.931135, 0],
            [-50.474002, -21.930665, 0],
            [-50.475822, -21.932003, 0]
          ]
        ]
      }
    }
  ]
}
